OBJECT_NAME,OBJECT_ID,EPOCH,MEAN_MOTION,ECCENTRICITY,INCLINATION,RA_OF_ASC_NODE,ARG_OF_PERICENTER,MEAN_ANOMALY,EPHEMERIS_TYPE,CLASSIFICATION_TYPE,NORAD_CAT_ID,ELEMENT_SET_NO,REV_AT_EPOCH,BSTAR,MEAN_MOTION_DOT,MEAN_MOTION_DDOT
BEIDOU-2 IGSO-4,2011-038A,2026-06-11T23:34:21.681696,1.00285652,.01593513,54.5997,165.7200,231.3459,310.0324,0,U,37763,999,5459,0,.9E-6,0
ASTRA 1N,2011-041A,2026-06-12T06:26:48.139872,1.00269439,.00060479,0.0873,40.6760,52.3946,283.4453,0,U,37775,999,4447,0,.135E-5,0
BSAT-3C (JCSAT-110R),2011-041B,2026-06-12T06:52:38.722656,1.00269079,.00007204,0.0154,344.4634,200.3369,288.9278,0,U,37776,999,5042,0,-.335E-5,0
PAKSAT-1R,2011-042A,2026-06-12T06:32:10.125024,1.00276204,.00030369,0.6756,84.6404,348.5659,323.4991,0,U,37779,999,5442,0,.169E-5,0
SES-2,2011-049A,2026-06-12T05:43:18.357888,1.00271412,.00026958,0.0521,108.8004,331.8292,178.7742,0,U,37809,999,5391,0,-.18E-5,0
ARABSAT-5C,2011-049B,2026-06-12T06:27:03.115584,1.00269623,.0003343,0.0488,4.7895,93.5398,279.0342,0,U,37810,999,5398,0,.139E-5,0
EUTELSAT 7 WEST A,2011-051A,2026-06-12T06:19:11.369856,1.00271092,.00040599,0.0614,2.5531,91.2344,254.2869,0,U,37816,999,5382,0,-.45E-6,0
INTELSAT 18 (IS-18),2011-056A,2026-06-12T05:29:56.300640,1.00271490,.00020527,0.0242,283.4203,174.4911,65.1445,0,U,37834,999,5376,0,.68E-6,0
EUTELSAT 16A,2011-057A,2026-06-12T06:25:48.236160,1.00272372,.00059386,0.0432,6.5077,77.5942,288.9310,0,U,37836,999,728,0,.119E-5,0
VIASAT-1,2011-059A,2026-06-12T05:48:36.114624,1.00271605,.00020979,0.0188,331.8985,110.5566,150.1656,0,U,37843,999,4727,0,-.8E-7,0
WGS F4 (USA 233),2012-003A,2026-06-12T03:21:16.100352,1.00268421,.00008258,0.0225,354.2114,300.9842,104.0030,0,U,38070,999,4409,0,0,0
SES-4,2012-007A,2026-06-12T06:15:04.264128,1.00271097,.00025903,0.0253,31.3999,61.6964,239.2618,0,U,38087,999,5217,0,-.153E-5,0
MUOS-1,2012-009A,2026-06-12T05:52:43.218624,1.00270417,.0058793,5.4665,47.1605,1.4568,200.1563,0,U,38093,999,5239,0,-.116E-5,0
AEHF-2 (USA 235),2012-019A,2026-06-12T01:08:33.668160,1.00270149,.00023869,6.6394,57.5273,14.2591,189.1984,0,U,38254,999,693,0,-.125E-5,0
JCSAT-13,2012-023A,2026-06-12T06:56:38.339232,1.00271080,.0002993,0.0134,326.5904,141.8604,20.3411,0,U,38331,999,5149,0,-.341E-5,0
VINASAT-2,2012-023B,2026-06-12T06:58:53.124096,1.00269678,.00022133,0.0140,348.8858,106.0972,42.2095,0,U,38332,999,4661,0,-.313E-5,0
NIMIQ 6,2012-026A,2026-06-12T05:55:20.468352,1.00271084,.00025122,0.0289,289.3254,151.8202,177.1737,0,U,38342,999,5036,0,-.158E-5,0
INTELSAT 19 (IS-19),2012-030A,2026-06-12T05:25:56.684064,1.00270465,.00028795,0.0178,349.8036,98.5318,59.7136,0,U,38356,999,5040,0,-.41E-6,0
ECHOSTAR 17,2012-035A,2026-06-12T05:50:43.411200,1.00269768,.00018666,0.0252,358.4770,78.3228,164.3521,0,U,38551,999,5101,0,0,0
METEOSAT-10 (MSG-3),2012-035B,2026-06-12T01:13:25.830624,1.00276007,.00014524,4.6588,61.0401,330.4387,247.5373,0,U,38552,999,5080,0,.8E-7,0
SES-5,2012-036A,2026-06-12T03:41:38.611104,1.00270253,.00018624,0.0478,313.5561,131.8109,235.5100,0,U,38652,999,4440,0,.49E-6,0
