BEIDOU-2 IGSO-4         
1 37763U 11038A   26162.98219539  .00000090  00000+0  00000+0 0  9999
2 37763  54.5997 165.7200 0159351 231.3459 310.0324  1.00285652 54594
ASTRA 1N                
1 37775U 11041A   26163.26861273  .00000135  00000+0  00000+0 0  9996
2 37775   0.0873  40.6760 0006047  52.3946 283.4453  1.00269439 44470
BSAT-3C (JCSAT-110R)    
1 37776U 11041B   26163.28655929 -.00000335  00000+0  00000+0 0  9991
2 37776   0.0154 344.4634 0000720 200.3369 288.9278  1.00269079 50421
PAKSAT-1R               
1 37779U 11042A   26163.27233941  .00000169  00000+0  00000+0 0  9994
2 37779   0.6756  84.6404 0003036 348.5659 323.4991  1.00276204 54425
SES-2                   
1 37809U 11049A   26163.23840692 -.00000180  00000+0  00000+0 0  9992
2 37809   0.0521 108.8004 0002695 331.8292 178.7742  1.00271412 53910
ARABSAT-5C              
1 37810U 11049B   26163.26878606  .00000139  00000+0  00000+0 0  9996
2 37810   0.0488   4.7895 0003343  93.5398 279.0342  1.00269623 53985
EUTELSAT 7 WEST A       
1 37816U 11051A   26163.26332604 -.00000045  00000+0  00000+0 0  9995
2 37816   0.0614   2.5531 0004059  91.2344 254.2869  1.00271092 53821
INTELSAT 18 (IS-18)     
1 37834U 11056A   26163.22912385  .00000068  00000+0  00000+0 0  9990
2 37834   0.0242 283.4203 0002052 174.4911  65.1445  1.00271490 53763
EUTELSAT 16A            
1 37836U 11057A   26163.26791940  .00000119  00000+0  00000+0 0  9996
2 37836   0.0432   6.5077 0005938  77.5942 288.9310  1.00272372  7284
VIASAT-1                
1 37843U 11059A   26163.24208466 -.00000008  00000+0  00000+0 0  9998
2 37843   0.0188 331.8985 0002097 110.5566 150.1656  1.00271605 47279
WGS F4 (USA 233)        
1 38070U 12003A   26163.13976968  .00000000  00000+0  00000+0 0  9999
2 38070   0.0225 354.2114 0000825 300.9842 104.0030  1.00268421 44099
SES-4                   
1 38087U 12007A   26163.26046602 -.00000153  00000+0  00000+0 0  9998
2 38087   0.0253  31.3999 0002590  61.6964 239.2618  1.00271097 52173
MUOS-1                  
1 38093U 12009A   26163.24494466 -.00000116  00000+0  00000+0 0  9999
2 38093   5.4665  47.1605 0058793   1.4568 200.1563  1.00270417 52398
AEHF-2 (USA 235)        
1 38254U 12019A   26163.04761190 -.00000125  00000+0  00000+0 0  9998
2 38254   6.6394  57.5273 0002386  14.2591 189.1984  1.00270149  6934
JCSAT-13                
1 38331U 12023A   26163.28933263 -.00000341  00000+0  00000+0 0  9997
2 38331   0.0134 326.5904 0002993 141.8604  20.3411  1.00271080 51493
VINASAT-2               
1 38332U 12023B   26163.29089264 -.00000313  00000+0  00000+0 0  9991
2 38332   0.0140 348.8858 0002213 106.0972  42.2095  1.00269678 46611
NIMIQ 6                 
1 38342U 12026A   26163.24676468 -.00000158  00000+0  00000+0 0  9995
2 38342   0.0289 289.3254 0002512 151.8202 177.1737  1.00271084 50363
INTELSAT 19 (IS-19)     
1 38356U 12030A   26163.22635051 -.00000041  00000+0  00000+0 0  9997
2 38356   0.0178 349.8036 0002879  98.5318  59.7136  1.00270465 50401
ECHOSTAR 17             
1 38551U 12035A   26163.24355800  .00000000  00000+0  00000+0 0  9996
2 38551   0.0252 358.4770 0001866  78.3228 164.3521  1.00269768 51016
METEOSAT-10 (MSG-3)     
1 38552U 12035B   26163.05099341  .00000008  00000+0  00000+0 0  9999
2 38552   4.6588  61.0401 0001452 330.4387 247.5373  1.00276007 50805
SES-5                   
1 38652U 12036A   26163.15391911  .00000049  00000+0  00000+0 0  9995
2 38652   0.0478 313.5561 0001862 131.8109 235.5100  1.00270253 44407
